     2.100          NAVIGATION                              RINEX VERSION / TYPE
fic2rin                                 07/29/2013 00:16:19 PGM / RUN BY / DATE
                                                            END OF HEADER
 1 13  7 28  4  0  0.0  .557629391551D-04  .488853402203D-11  .000000000000D+00
     .260000000000D+02 -.305312500000D+02  .458340520294D-08 -.136175854781D+01
    -.173598527908D-05  .213437189814D-02  .992417335510D-05  .515369233894D+04
     .144000000000D+05  .502914190292D-07 -.259004554540D+01 -.186264514923D-08
     .960517105621D+00  .186843750000D+03  .301084771789D+00 -.796104589523D-08
    -.114290474943D-09  .100000000000D+01  .175100000000D+04  .000000000000D+00
     .240000000000D+01  .000000000000D+00  .838190317154D-08  .260000000000D+02
     .720600000000D+04  .400000000000D+01
 2 13  7 28  4  0  0.0  .443806871772D-03  .181898940355D-11  .000000000000D+00
     .740000000000D+02 -.387187500000D+02  .521343144606D-08 -.594719836605D+00
    -.182539224625D-05  .124940843089D-01  .970438122749D-05  .515369791412D+04
     .144000000000D+05  .171363353729D-06 -.261304031205D+01  .141561031342D-06
     .939037734851D+00  .180843750000D+03 -.257421867943D+01 -.841963642594D-08
    -.158578033983D-09  .100000000000D+01  .175100000000D+04  .000000000000D+00
     .240000000000D+01  .000000000000D+00 -.172294676304D-07  .740000000000D+02
     .720600000000D+04  .400000000000D+01
 3 13  7 28  4  0  0.0  .238384585828D-03  .500222085975D-11  .000000000000D+00
     .670000000000D+02 -.163750000000D+02  .546415617547D-08 -.428420562693D+00
    -.720843672752D-06  .165664701490D-01  .485777854919D-05  .515370481491D+04
     .144000000000D+05 -.122934579849D-06  .249996338178D+01  .184401869774D-06
     .935261429804D+00  .276906250000D+03  .131104435380D+01 -.891394273007D-08
     .216080429189D-09  .100000000000D+01  .175100000000D+04  .000000000000D+00
     .240000000000D+01  .000000000000D+00 -.465661287308D-08  .670000000000D+02
     .720600000000D+04  .400000000000D+01
 4 13  7 28  4  0  0.0  .284218695015D-03  .104591890704D-10  .000000000000D+00
     .840000000000D+02 -.469062500000D+02  .505735351622D-08  .263510426635D+01
    -.247545540333D-05  .103920995025D-01  .103078782558D-04  .515358283424D+04
     .144000000000D+05  .596046447754D-07 -.259666547061D+01 -.167638063431D-06
     .938063454817D+00  .168531250000D+03  .995229322359D+00 -.803783480808D-08
    -.184293390845D-09  .100000000000D+01  .175100000000D+04  .000000000000D+00
     .240000000000D+01  .000000000000D+00 -.605359673500D-08  .840000000000D+02
     .720600000000D+04  .400000000000D+01
 5 13  7 28  4  0  0.0 -.399062409997D-03 -.341060513165D-12  .000000000000D+00
     .104000000000D+03  .640937500000D+02  .495449208877D-08  .167646240958D+01
     .354088842869D-05  .310988049023D-02  .956468284130D-05  .515367189789D+04
     .144000000000D+05  .465661287308D-07 -.154731728599D+01  .106170773506D-06
     .948046050838D+00  .187656250000D+03  .246524200425D+00 -.828355932921D-08
     .171435712414D-09  .100000000000D+01  .175100000000D+04  .000000000000D+00
     .240000000000D+01  .000000000000D+00 -.977888703346D-08  .104000000000D+03
     .720600000000D+04  .400000000000D+01
 6 13  7 28  4  0  0.0  .121702440083D-03 -.184172677109D-10  .000000000000D+00
     .710000000000D+02 -.213125000000D+02  .519914513669D-08  .138828321436D+01
    -.111758708954D-05  .811067270115D-02  .446476042271D-05  .515367624092D+04
     .144000000000D+05  .763684511185D-07  .257988631519D+01  .119209289551D-06
     .941900482667D+00  .283125000000D+03 -.261871777862D+00 -.848463913356D-08
     .171435712414D-10  .100000000000D+01  .175100000000D+04  .000000000000D+00
     .340000000000D+01  .000000000000D+00 -.512227416039D-08  .710000000000D+02
     .720600000000D+04  .400000000000D+01
 7 13  7 28  4  0  0.0  .240921974182D-03  .420641299570D-11  .000000000000D+00
     .410000000000D+02 -.382812500000D+02  .395266464435D-08 -.197556806826D+01
    -.208429992199D-05  .671415007673D-02  .938773155212D-05  .515368166542D+04
     .144000000000D+05 -.558793544769D-08  .570371012002D+00 -.558793544769D-07
     .975376659439D+00  .205593750000D+03 -.291514654883D+01 -.781175396234D-08
    -.222866426138D-09  .100000000000D+01  .175100000000D+04  .000000000000D+00
     .240000000000D+01  .000000000000D+00 -.107102096081D-07  .410000000000D+02
     .720600000000D+04  .400000000000D+01
 8 13  7 28  4  0  0.0  .763637945056D-05  .227373675443D-12  .000000000000D+00
     .360000000000D+02 -.348750000000D+02  .343371445656D-08 -.254418644881D+01
    -.192224979401D-05  .132234155899D-01  .100210309029D-04  .515371306801D+04
     .144000000000D+05 -.689178705215D-07  .662971733925D+00 -.182539224625D-06
     .998158300865D+00  .204656250000D+03 -.285982196997D+01 -.748566895102D-08
    -.190365072327D-09  .100000000000D+01  .175100000000D+04  .000000000000D+00
     .240000000000D+01  .000000000000D+00 -.372529029846D-08  .360000000000D+02
     .720600000000D+04  .400000000000D+01
 9 13  7 28  4  0  0.0  .257445964962D-03  .250111042988D-11  .000000000000D+00
     .850000000000D+02 -.336875000000D+02  .395837916810D-08 -.896814267640D+00
    -.174716114998D-05  .173461218365D-01  .935420393944D-05  .515277509499D+04
     .144000000000D+05 -.210478901863D-06  .547590391692D+00  .122934579849D-06
     .984000162139D+00  .216500000000D+03  .169535434933D+01 -.811855245601D-08
    -.227152318949D-09  .100000000000D+01  .175100000000D+04  .000000000000D+00
     .340000000000D+01  .000000000000D+00 -.558793544769D-08  .850000000000D+02
     .720600000000D+04  .400000000000D+01
10 13  7 28  4  0  0.0 -.884905457497D-04 -.136424205266D-11  .000000000000D+00
     .115000000000D+03  .771562500000D+02  .511914180423D-08  .187693821767D+01
     .390969216824D-05  .125362512190D-01  .957958400249D-05  .515365196419D+04
     .144000000000D+05 -.324100255966D-06 -.152824545267D+01 -.838190317154D-07
     .942867619272D+00  .186250000000D+03  .807623323953D+00 -.831427489435D-08
     .228223792151D-09  .100000000000D+01  .175100000000D+04  .000000000000D+00
     .240000000000D+01  .000000000000D+00 -.232830643654D-08  .115000000000D+03
     .720600000000D+04  .400000000000D+01
11 13  7 28  4  0  0.0 -.404871534556D-03 -.352429196937D-11  .000000000000D+00
     .100000000000D+03 -.503125000000D+02  .624597445562D-08 -.176163548387D+01
    -.253692269325D-05  .142739450093D-01  .741332769394D-05  .515368510628D+04
     .144000000000D+05  .277534127235D-06 -.289146114003D+01  .819563865662D-07
     .889494375628D+00  .190812500000D+03  .118860723771D+01 -.869714798541D-08
    -.882179603464D-10  .100000000000D+01  .175100000000D+04  .000000000000D+00
     .240000000000D+01  .000000000000D+00 -.116415321827D-07  .100000000000D+03
     .720600000000D+04  .400000000000D+01
12 13  7 28  4  0  0.0  .147237908095D-03  .216004991671D-11  .000000000000D+00
     .890000000000D+02  .837500000000D+01  .383587406527D-08 -.226642413878D+01
     .515952706337D-06  .458533607889D-02  .809505581856D-05  .515379836273D+04
     .144000000000D+05 -.931322574615D-08  .162999281533D+01 -.372529029846D-07
     .984511696315D+00  .236062500000D+03  .318243272110D+00 -.773032199894D-08
     .392873507616D-09  .100000000000D+01  .175100000000D+04  .000000000000D+00
     .240000000000D+01  .000000000000D+00 -.116415321827D-07  .890000000000D+02
     .720600000000D+04  .400000000000D+01
13 13  7 28  4  0  0.0  .957148149610D-04 -.375166564481D-11  .000000000000D+00
     .102000000000D+03  .271875000000D+01  .436018161907D-08  .352681746153D+00
    -.111758708954D-07  .511175568681D-02  .478141009808D-05  .515371925163D+04
     .144000000000D+05 -.596046447754D-07 -.395877793488D+00 -.782310962677D-07
     .981004634026D+00  .298406250000D+03  .217957827180D+01 -.820212736581D-08
    -.267153985179D-09  .100000000000D+01  .175100000000D+04  .000000000000D+00
     .240000000000D+01  .000000000000D+00 -.107102096081D-07  .102000000000D+03
     .720600000000D+04  .400000000000D+01
14 13  7 28  4  0  0.0  .218797009438D-03 -.568434188608D-12  .000000000000D+00
     .630000000000D+02  .135937500000D+02  .452375986133D-08  .585783047072D+00
     .793486833572D-06  .720513844863D-02  .488013029099D-05  .515377313423D+04
     .144000000000D+05 -.279396772385D-07 -.425548424406D+00  .651925802231D-07
     .973640232732D+00  .293906250000D+03 -.203315564681D+01 -.832927551919D-08
    -.288583449230D-09  .100000000000D+01  .175100000000D+04  .000000000000D+00
     .240000000000D+01  .000000000000D+00 -.884756445885D-08  .630000000000D+02
     .720600000000D+04  .400000000000D+01
15 13  7 28  4  0  0.0 -.129571184516D-03 -.170530256582D-11  .000000000000D+00
     .800000000000D+02  .223437500000D+02  .534986570052D-08  .625402745392D-01
     .105053186417D-05  .547496601939D-02  .417605042458D-05  .515379610825D+04
     .144000000000D+05  .149011611938D-07 -.527432676705D+00  .651925802231D-07
     .940182063020D+00  .285000000000D+03  .161938929544D+00 -.868750472659D-08
    -.229295265354D-09  .100000000000D+01  .175100000000D+04  .000000000000D+00
     .340000000000D+01  .000000000000D+00 -.977888703346D-08  .800000000000D+02
     .720600000000D+04  .400000000000D+01
16 13  7 28  4  0  0.0 -.249568372965D-03  .568434188608D-12  .000000000000D+00
     .550000000000D+02  .250937500000D+02  .387194699642D-08  .179415336153D+01
     .138580799103D-05  .710256386083D-02  .807456672192D-05  .515368221855D+04
     .144000000000D+05 -.819563865662D-07  .164841865914D+01  .409781932831D-07
     .985190787276D+00  .238718750000D+03  .134425649288D+00 -.779139597149D-08
     .237509893240D-09  .100000000000D+01  .175100000000D+04  .000000000000D+00
     .240000000000D+01  .000000000000D+00 -.977888703346D-08  .550000000000D+02
     .720600000000D+04  .400000000000D+01
